IONOSFERA-M 2           
1 61736U 24199B   26200.64819779  .00000005  00000+0  21791-4 0  9997
2 61736  98.7128  73.3816 0000665 130.2676 229.8560 14.22763028135444
PRSC-EO1                
1 62725U 25012A   26200.63059006  .00003272  00000+0  16580-3 0  9997
2 62725  97.4209 272.4537 0007097 134.0241 226.1578 15.17651634 83116
BIOMASS                 
1 63772U 25090A   26200.49097184  .00000236  00000+0  50120-4 0  9995
2 63772  98.0751  27.3359 0001411  90.4750 269.6617 14.67535137 65424
GOSAT-GW (IBUKI GW)     
1 64694U 25141A   26200.57634212  .00000191  00000+0  42060-4 0  9998
2 64694  98.0564 137.3672 0001451  85.7635 274.3736 14.67555318 56599
IONOSFERA-M 3           
1 64876U 25155A   26200.62458269  .00000009  00000+0  23650-4 0  9999
2 64876  98.6043 161.7164 0002395 105.7971 254.3471 14.21491220 51017
IONOSFERA-M 4           
1 64877U 25155B   26200.58897988  .00000006  00000+0  22466-4 0  9991
2 64877  98.6042 161.5988 0001886  95.1772 264.9621 14.21493671 51009
MICROCARB               
1 64899U 25156A   26200.49069728  .00000250  00000+0  46854-4 0  9997
2 64899  98.0072 277.1324 0017951 157.3879 202.8123 14.72887826 52720
CO3D 3                  
1 64900U 25156B   26200.57244355  .00002091  00000+0  99645-4 0  9991
2 64900  97.4331 278.8002 0001766  93.8239 266.3199 15.20211028 54455
CO3D 4                  
1 64901U 25156C   26200.57259572  .00000866  00000+0  43107-4 0  9999
2 64901  97.4335 278.8000 0001974 146.6772 213.4587 15.20209901 54459
CO3D 2                  
1 64902U 25156D   26200.53925073  .00001959  00000+0  93627-4 0  9998
2 64902  97.4332 278.6662 0001174  91.5515 268.5854 15.20196092 54447
CO3D 1                  
1 64903U 25156E   26200.53940583  .00001963  00000+0  93766-4 0  9991
2 64903  97.4331 278.6663 0001314 102.2765 257.8618 15.20197826 54446
PRSC-S1                 
1 65055U 25164A   26200.61455605  .00002355  00000+0  16772-3 0  9991
2 65055  41.1302 105.1483 0007337 224.8236 135.1986 15.06656923 53322
SENTINEL-6B             
1 66514U 25264A   26200.01888776 -.00000055  00000+0  24712-4 0  9996
2 66514  66.0411  69.0646 0007844 268.6081  91.4036 12.80930222 31249
CAS500-3                
1 66655U 25274F   26200.35094944  .00000588  00000+0  69229-4 0  9998
2 66655  97.7434 127.6705 0005944  26.4069 333.7450 14.88389055 34936
CSG-3                   
1 67304U 26001A   26200.46908574  .00000114  00000+0  20920-4 0  9994
2 67304  97.8898  23.6049 0001523  94.3856 265.7531 14.82165421 29241
PRSC-E03                
1 68835U 26092A   26200.52883520  .00000995  00000+0  72779-4 0  9990
2 68835  38.0006 258.9465 0005027 277.8576  82.1615 15.06819279 12839
CAS500-2                
1 69013U 26100AK  26200.26388497  .00002915  00000+0  13942-3 0  9993
2 69013  97.3851  97.5024 0008029 236.3873 123.6597 15.19750384 11684
