OBJECT_NAME,OBJECT_ID,EPOCH,MEAN_MOTION,ECCENTRICITY,INCLINATION,RA_OF_ASC_NODE,ARG_OF_PERICENTER,MEAN_ANOMALY,EPHEMERIS_TYPE,CLASSIFICATION_TYPE,NORAD_CAT_ID,ELEMENT_SET_NO,REV_AT_EPOCH,BSTAR,MEAN_MOTION_DOT,MEAN_MOTION_DDOT
IONOSFERA-M 2,2024-199B,2026-07-19T15:33:24.289056,14.22763028,.00006655,98.7128,73.3816,130.2676,229.8560,0,U,61736,999,13544,.21791215E-4,.5E-7,0
PRSC-EO1,2025-012A,2026-07-19T15:08:02.981184,15.17651634,.00070973,97.4209,272.4537,134.0241,226.1578,0,U,62725,999,8311,.16580309E-3,.3272E-4,0
BIOMASS,2025-090A,2026-07-19T11:46:59.966976,14.67535137,.00014118,98.0751,27.3359,90.4750,269.6617,0,U,63772,999,6542,.50119626E-4,.236E-5,0
GOSAT-GW (IBUKI GW),2025-141A,2026-07-19T13:49:55.959168,14.67555318,.00014514,98.0564,137.3672,85.7635,274.3736,0,U,64694,999,5659,.42059756E-4,.191E-5,0
IONOSFERA-M 3,2025-155A,2026-07-19T14:59:23.944416,14.21491220,.00023955,98.6043,161.7164,105.7971,254.3471,0,U,64876,999,5101,.23650028E-4,.9E-7,0
IONOSFERA-M 4,2025-155B,2026-07-19T14:08:07.861632,14.21493671,.00018863,98.6042,161.5988,95.1772,264.9621,0,U,64877,999,5100,.22466291E-4,.6E-7,0
MICROCARB,2025-156A,2026-07-19T11:46:36.244992,14.72887826,.00179512,98.0072,277.1324,157.3879,202.8123,0,U,64899,999,5272,.46854198E-4,.25E-5,0
CO3D 3,2025-156B,2026-07-19T13:44:19.122720,15.20211028,.00017661,97.4331,278.8002,93.8239,266.3199,0,U,64900,999,5445,.99644981E-4,.2091E-4,0
CO3D 4,2025-156C,2026-07-19T13:44:32.270208,15.20209901,.0001974,97.4335,278.8000,146.6772,213.4587,0,U,64901,999,5445,.43107004E-4,.866E-5,0
CO3D 2,2025-156D,2026-07-19T12:56:31.263072,15.20196092,.00011747,97.4332,278.6662,91.5515,268.5854,0,U,64902,999,5444,.93626931E-4,.1959E-4,0
CO3D 1,2025-156E,2026-07-19T12:56:44.663712,15.20197826,.00013146,97.4331,278.6663,102.2765,257.8618,0,U,64903,999,5444,.93765622E-4,.1963E-4,0
PRSC-S1,2025-164A,2026-07-19T14:44:57.642720,15.06656923,.00073377,41.1302,105.1483,224.8236,135.1986,0,U,65055,999,5332,.16772213E-3,.2355E-4,0
SENTINEL-6B,2025-264A,2026-07-19T00:27:11.902464,12.80930222,.00078446,66.0411,69.0646,268.6081,91.4036,0,U,66514,999,3124,.24711764E-4,-.55E-6,0
CAS500-3,2025-274F,2026-07-19T08:25:22.031616,14.88389055,.0005944,97.7434,127.6705,26.4069,333.7450,0,U,66655,999,3493,.6922898E-4,.588E-5,0
CSG-3,2026-001A,2026-07-19T11:15:29.007936,14.82165421,.00015234,97.8898,23.6049,94.3856,265.7531,0,U,67304,999,2924,.20919544E-4,.114E-5,0
PRSC-E03,2026-092A,2026-07-19T12:41:31.361280,15.06819279,.00050276,38.0006,258.9465,277.8576,82.1615,0,U,68835,999,1283,.72779398E-4,.995E-5,0
CAS500-2,2026-100AK,2026-07-19T06:19:59.661408,15.19750384,.00080292,97.3851,97.5024,236.3873,123.6597,0,U,69013,999,1168,.13941638E-3,.2915E-4,0
